STARLINK-31246          
1 58835U 24017K   26068.66476140 -.00000148  00000+0  71219-5 0  9997
2 58835  53.1589 204.3450 0000874  94.8843 265.2258 15.30192976120056
STRIX-4                 
1 60352U 24137A   26068.65404516  .00020530  00000+0  71820-3 0  9996
2 60352  43.0134 129.8162 0016840   5.2738 354.8289 15.29026223 88766
